KUIPER-00061            
1 64521U 25134X   26004.75246584  .00005825  00000+0  79204-3 0  9990
2 64521  51.8995 150.8149 0000883  76.1170 283.9891 14.79953814 30662
KUIPER-00062            
1 64522U 25134Y   26005.10181947  .00004591  00000+0  55770-3 0  9993
2 64522  51.8958 153.3838 0007489  83.6586 276.5232 14.85140374 30672
KUIPER-00063            
1 64523U 25134Z   26005.14678832  .00004789  00000+0  65623-3 0  9999
2 64523  51.9018 159.0726 0000170 131.9915 228.1062 14.79963967 30592
KUIPER-00064            
1 64524U 25134AA  26005.14943797 -.00003985  00000+0 -49355-3 0  9998
2 64524  51.9030 156.4793 0007396 139.1832 220.9685 14.79935830 30631
KUIPER-00065            
1 64525U 25134AB  26005.14404294  .00003871  00000+0  53381-3 0  9999
2 64525  51.9024 161.6557 0006741  78.8749 281.2971 14.80145677 30542
KUIPER-00066            
1 64526U 25134AC  26005.28899373  .00020014  00000+0  88731-3 0  9996
2 64526  51.8920 123.6141 0000633  11.6197 348.4798 15.21588561 31105
KUIPER-00069            
1 64816U 25151A   26004.76324141  .00001892  00000+0  27728-3 0  9997
2 64816  51.9001 203.2956 0003888  86.8475 273.2932 14.79911359 27292
KUIPER-00070            
1 64817U 25151B   26005.31035417 -.00003358  00000+0 -41163-3 0  9995
2 64817  51.8979 225.8270 0011250  49.8755 310.3191 14.79847659 27030
