<?xml version="1.0" encoding="UTF-8"?>
<ndm xmlns:xsi="http://www.w3.org/2001/XMLSchema-instance" xsi:noNamespaceSchemaLocation="https://sanaregistry.org/r/ndmxml_unqualified/ndmxml-2.0.0-master-2.0.xsd">
<omm id="CCSDS_OMM_VERS" version="2.0">
<header><CREATION_DATE/><ORIGINATOR/></header><body><segment><metadata><OBJECT_NAME>KUIPER-00061</OBJECT_NAME><OBJECT_ID>2025-134X</OBJECT_ID><CENTER_NAME>EARTH</CENTER_NAME><REF_FRAME>TEME</REF_FRAME><TIME_SYSTEM>UTC</TIME_SYSTEM><MEAN_ELEMENT_THEORY>SGP4</MEAN_ELEMENT_THEORY></metadata><data><meanElements><EPOCH>2026-01-04T18:03:33.048576</EPOCH><MEAN_MOTION>14.79953814</MEAN_MOTION><ECCENTRICITY>.00008836</ECCENTRICITY><INCLINATION>51.8995</INCLINATION><RA_OF_ASC_NODE>150.8149</RA_OF_ASC_NODE><ARG_OF_PERICENTER>76.1170</ARG_OF_PERICENTER><MEAN_ANOMALY>283.9891</MEAN_ANOMALY></meanElements><tleParameters><EPHEMERIS_TYPE>0</EPHEMERIS_TYPE><CLASSIFICATION_TYPE>U</CLASSIFICATION_TYPE><NORAD_CAT_ID>64521</NORAD_CAT_ID><ELEMENT_SET_NO>999</ELEMENT_SET_NO><REV_AT_EPOCH>3066</REV_AT_EPOCH><BSTAR>.79204471E-3</BSTAR><MEAN_MOTION_DOT>.5825E-4</MEAN_MOTION_DOT><MEAN_MOTION_DDOT>0</MEAN_MOTION_DDOT></tleParameters></data></segment></body></omm>
<omm id="CCSDS_OMM_VERS" version="2.0">
<header><CREATION_DATE/><ORIGINATOR/></header><body><segment><metadata><OBJECT_NAME>KUIPER-00062</OBJECT_NAME><OBJECT_ID>2025-134Y</OBJECT_ID><CENTER_NAME>EARTH</CENTER_NAME><REF_FRAME>TEME</REF_FRAME><TIME_SYSTEM>UTC</TIME_SYSTEM><MEAN_ELEMENT_THEORY>SGP4</MEAN_ELEMENT_THEORY></metadata><data><meanElements><EPOCH>2026-01-05T02:26:37.202208</EPOCH><MEAN_MOTION>14.85140374</MEAN_MOTION><ECCENTRICITY>.00074896</ECCENTRICITY><INCLINATION>51.8958</INCLINATION><RA_OF_ASC_NODE>153.3838</RA_OF_ASC_NODE><ARG_OF_PERICENTER>83.6586</ARG_OF_PERICENTER><MEAN_ANOMALY>276.5232</MEAN_ANOMALY></meanElements><tleParameters><EPHEMERIS_TYPE>0</EPHEMERIS_TYPE><CLASSIFICATION_TYPE>U</CLASSIFICATION_TYPE><NORAD_CAT_ID>64522</NORAD_CAT_ID><ELEMENT_SET_NO>999</ELEMENT_SET_NO><REV_AT_EPOCH>3067</REV_AT_EPOCH><BSTAR>.55770328E-3</BSTAR><MEAN_MOTION_DOT>.4591E-4</MEAN_MOTION_DOT><MEAN_MOTION_DDOT>0</MEAN_MOTION_DDOT></tleParameters></data></segment></body></omm>
<omm id="CCSDS_OMM_VERS" version="2.0">
<header><CREATION_DATE/><ORIGINATOR/></header><body><segment><metadata><OBJECT_NAME>KUIPER-00063</OBJECT_NAME><OBJECT_ID>2025-134Z</OBJECT_ID><CENTER_NAME>EARTH</CENTER_NAME><REF_FRAME>TEME</REF_FRAME><TIME_SYSTEM>UTC</TIME_SYSTEM><MEAN_ELEMENT_THEORY>SGP4</MEAN_ELEMENT_THEORY></metadata><data><meanElements><EPOCH>2026-01-05T03:31:22.510848</EPOCH><MEAN_MOTION>14.79963967</MEAN_MOTION><ECCENTRICITY>.00001704</ECCENTRICITY><INCLINATION>51.9018</INCLINATION><RA_OF_ASC_NODE>159.0726</RA_OF_ASC_NODE><ARG_OF_PERICENTER>131.9915</ARG_OF_PERICENTER><MEAN_ANOMALY>228.1062</MEAN_ANOMALY></meanElements><tleParameters><EPHEMERIS_TYPE>0</EPHEMERIS_TYPE><CLASSIFICATION_TYPE>U</CLASSIFICATION_TYPE><NORAD_CAT_ID>64523</NORAD_CAT_ID><ELEMENT_SET_NO>999</ELEMENT_SET_NO><REV_AT_EPOCH>3059</REV_AT_EPOCH><BSTAR>.65623008E-3</BSTAR><MEAN_MOTION_DOT>.4789E-4</MEAN_MOTION_DOT><MEAN_MOTION_DDOT>0</MEAN_MOTION_DDOT></tleParameters></data></segment></body></omm>
<omm id="CCSDS_OMM_VERS" version="2.0">
<header><CREATION_DATE/><ORIGINATOR/></header><body><segment><metadata><OBJECT_NAME>KUIPER-00064</OBJECT_NAME><OBJECT_ID>2025-134AA</OBJECT_ID><CENTER_NAME>EARTH</CENTER_NAME><REF_FRAME>TEME</REF_FRAME><TIME_SYSTEM>UTC</TIME_SYSTEM><MEAN_ELEMENT_THEORY>SGP4</MEAN_ELEMENT_THEORY></metadata><data><meanElements><EPOCH>2026-01-05T03:35:11.440608</EPOCH><MEAN_MOTION>14.79935830</MEAN_MOTION><ECCENTRICITY>.0007396</ECCENTRICITY><INCLINATION>51.9030</INCLINATION><RA_OF_ASC_NODE>156.4793</RA_OF_ASC_NODE><ARG_OF_PERICENTER>139.1832</ARG_OF_PERICENTER><MEAN_ANOMALY>220.9685</MEAN_ANOMALY></meanElements><tleParameters><EPHEMERIS_TYPE>0</EPHEMERIS_TYPE><CLASSIFICATION_TYPE>U</CLASSIFICATION_TYPE><NORAD_CAT_ID>64524</NORAD_CAT_ID><ELEMENT_SET_NO>999</ELEMENT_SET_NO><REV_AT_EPOCH>3063</REV_AT_EPOCH><BSTAR>-.49355241E-3</BSTAR><MEAN_MOTION_DOT>-.3985E-4</MEAN_MOTION_DOT><MEAN_MOTION_DDOT>0</MEAN_MOTION_DDOT></tleParameters></data></segment></body></omm>
<omm id="CCSDS_OMM_VERS" version="2.0">
<header><CREATION_DATE/><ORIGINATOR/></header><body><segment><metadata><OBJECT_NAME>KUIPER-00065</OBJECT_NAME><OBJECT_ID>2025-134AB</OBJECT_ID><CENTER_NAME>EARTH</CENTER_NAME><REF_FRAME>TEME</REF_FRAME><TIME_SYSTEM>UTC</TIME_SYSTEM><MEAN_ELEMENT_THEORY>SGP4</MEAN_ELEMENT_THEORY></metadata><data><meanElements><EPOCH>2026-01-05T03:27:25.310016</EPOCH><MEAN_MOTION>14.80145677</MEAN_MOTION><ECCENTRICITY>.00067418</ECCENTRICITY><INCLINATION>51.9024</INCLINATION><RA_OF_ASC_NODE>161.6557</RA_OF_ASC_NODE><ARG_OF_PERICENTER>78.8749</ARG_OF_PERICENTER><MEAN_ANOMALY>281.2971</MEAN_ANOMALY></meanElements><tleParameters><EPHEMERIS_TYPE>0</EPHEMERIS_TYPE><CLASSIFICATION_TYPE>U</CLASSIFICATION_TYPE><NORAD_CAT_ID>64525</NORAD_CAT_ID><ELEMENT_SET_NO>999</ELEMENT_SET_NO><REV_AT_EPOCH>3054</REV_AT_EPOCH><BSTAR>.53380892E-3</BSTAR><MEAN_MOTION_DOT>.3871E-4</MEAN_MOTION_DOT><MEAN_MOTION_DDOT>0</MEAN_MOTION_DDOT></tleParameters></data></segment></body></omm>
<omm id="CCSDS_OMM_VERS" version="2.0">
<header><CREATION_DATE/><ORIGINATOR/></header><body><segment><metadata><OBJECT_NAME>KUIPER-00066</OBJECT_NAME><OBJECT_ID>2025-134AC</OBJECT_ID><CENTER_NAME>EARTH</CENTER_NAME><REF_FRAME>TEME</REF_FRAME><TIME_SYSTEM>UTC</TIME_SYSTEM><MEAN_ELEMENT_THEORY>SGP4</MEAN_ELEMENT_THEORY></metadata><data><meanElements><EPOCH>2026-01-05T06:56:09.058272</EPOCH><MEAN_MOTION>15.21588561</MEAN_MOTION><ECCENTRICITY>.00006331</ECCENTRICITY><INCLINATION>51.8920</INCLINATION><RA_OF_ASC_NODE>123.6141</RA_OF_ASC_NODE><ARG_OF_PERICENTER>11.6197</ARG_OF_PERICENTER><MEAN_ANOMALY>348.4798</MEAN_ANOMALY></meanElements><tleParameters><EPHEMERIS_TYPE>0</EPHEMERIS_TYPE><CLASSIFICATION_TYPE>U</CLASSIFICATION_TYPE><NORAD_CAT_ID>64526</NORAD_CAT_ID><ELEMENT_SET_NO>999</ELEMENT_SET_NO><REV_AT_EPOCH>3110</REV_AT_EPOCH><BSTAR>.88731134E-3</BSTAR><MEAN_MOTION_DOT>.20014E-3</MEAN_MOTION_DOT><MEAN_MOTION_DDOT>0</MEAN_MOTION_DDOT></tleParameters></data></segment></body></omm>
<omm id="CCSDS_OMM_VERS" version="2.0">
<header><CREATION_DATE/><ORIGINATOR/></header><body><segment><metadata><OBJECT_NAME>KUIPER-00069</OBJECT_NAME><OBJECT_ID>2025-151A</OBJECT_ID><CENTER_NAME>EARTH</CENTER_NAME><REF_FRAME>TEME</REF_FRAME><TIME_SYSTEM>UTC</TIME_SYSTEM><MEAN_ELEMENT_THEORY>SGP4</MEAN_ELEMENT_THEORY></metadata><data><meanElements><EPOCH>2026-01-04T18:19:04.057824</EPOCH><MEAN_MOTION>14.79911359</MEAN_MOTION><ECCENTRICITY>.00038883</ECCENTRICITY><INCLINATION>51.9001</INCLINATION><RA_OF_ASC_NODE>203.2956</RA_OF_ASC_NODE><ARG_OF_PERICENTER>86.8475</ARG_OF_PERICENTER><MEAN_ANOMALY>273.2932</MEAN_ANOMALY></meanElements><tleParameters><EPHEMERIS_TYPE>0</EPHEMERIS_TYPE><CLASSIFICATION_TYPE>U</CLASSIFICATION_TYPE><NORAD_CAT_ID>64816</NORAD_CAT_ID><ELEMENT_SET_NO>999</ELEMENT_SET_NO><REV_AT_EPOCH>2729</REV_AT_EPOCH><BSTAR>.27728405E-3</BSTAR><MEAN_MOTION_DOT>.1892E-4</MEAN_MOTION_DOT><MEAN_MOTION_DDOT>0</MEAN_MOTION_DDOT></tleParameters></data></segment></body></omm>
<omm id="CCSDS_OMM_VERS" version="2.0">
<header><CREATION_DATE/><ORIGINATOR/></header><body><segment><metadata><OBJECT_NAME>KUIPER-00070</OBJECT_NAME><OBJECT_ID>2025-151B</OBJECT_ID><CENTER_NAME>EARTH</CENTER_NAME><REF_FRAME>TEME</REF_FRAME><TIME_SYSTEM>UTC</TIME_SYSTEM><MEAN_ELEMENT_THEORY>SGP4</MEAN_ELEMENT_THEORY></metadata><data><meanElements><EPOCH>2026-01-05T07:26:54.600288</EPOCH><MEAN_MOTION>14.79847659</MEAN_MOTION><ECCENTRICITY>.00112505</ECCENTRICITY><INCLINATION>51.8979</INCLINATION><RA_OF_ASC_NODE>225.8270</RA_OF_ASC_NODE><ARG_OF_PERICENTER>49.8755</ARG_OF_PERICENTER><MEAN_ANOMALY>310.3191</MEAN_ANOMALY></meanElements><tleParameters><EPHEMERIS_TYPE>0</EPHEMERIS_TYPE><CLASSIFICATION_TYPE>U</CLASSIFICATION_TYPE><NORAD_CAT_ID>64817</NORAD_CAT_ID><ELEMENT_SET_NO>999</ELEMENT_SET_NO><REV_AT_EPOCH>2703</REV_AT_EPOCH><BSTAR>-.41162784E-3</BSTAR><MEAN_MOTION_DOT>-.3358E-4</MEAN_MOTION_DOT><MEAN_MOTION_DDOT>0</MEAN_MOTION_DDOT></tleParameters></data></segment></body></omm>

</ndm>
